[{"OBJECT_NAME":"STARLINK-31386","OBJECT_ID":"2024-056C","EPOCH":"2026-03-09T11:41:37.442688","MEAN_MOTION":15.27572805,"ECCENTRICITY":0.00014526,"INCLINATION":43.0015,"RA_OF_ASC_NODE":231.8274,"ARG_OF_PERICENTER":278.0938,"MEAN_ANOMALY":81.9748,"EPHEMERIS_TYPE":0,"CLASSIFICATION_TYPE":"U","NORAD_CAT_ID":59298,"ELEMENT_SET_NO":999,"REV_AT_EPOCH":11112,"BSTAR":1.0709417e-5,"MEAN_MOTION_DOT":3.2e-7,"MEAN_MOTION_DDOT":0},{"OBJECT_NAME":"FLOCK 4G-26","OBJECT_ID":"2025-009AA","EPOCH":"2026-03-09T19:19:02.910720","MEAN_MOTION":15.27281631,"ECCENTRICITY":0.0001988,"INCLINATION":97.4054,"RA_OF_ASC_NODE":151.3913,"ARG_OF_PERICENTER":299.1273,"MEAN_ANOMALY":60.9767,"EPHEMERIS_TYPE":0,"CLASSIFICATION_TYPE":"U","NORAD_CAT_ID":62633,"ELEMENT_SET_NO":999,"REV_AT_EPOCH":6373,"BSTAR":0.00042468806,"MEAN_MOTION_DOT":0.00011283,"MEAN_MOTION_DDOT":0}]
